{"type": "FeatureCollection", "features": [ {"type": "Feature", "properties": {"norad_id": 30293, "name": "FENGYUN 1C DEB", "group": "fengyun-1c-debris", "lat": -53.70907352664099, "lon": 179.2178596398304, "alt_km": 787.5333392078364, "timestamp": "2025-12-02T10:50:47.549376+00:00", "meta": {"OBJECT_NAME": "FENGYUN 1C DEB", "OBJECT_ID": "1999-025ZE", "EPOCH": "2025-12-02T00:11:55.506048", "MEAN_MOTION": 14.48831614, "ECCENTRICITY": 0.0076539, "INCLINATION": 99.2546, "RA_OF_ASC_NODE": 165.9031, "ARG_OF_PERICENTER": 146.5188, "MEAN_ANOMALY": 5.7894, "EPHEMERIS_TYPE": 0, "CLASSIFICATION_TYPE": "U", "NORAD_CAT_ID": 30293, "ELEMENT_SET_NO": 999, "REV_AT_EPOCH": 98821, "BSTAR": 0.0010317, "MEAN_MOTION_DOT": 3.993e-05, "MEAN_MOTION_DDOT": 0}, "tle": {"line1": "1 30293U 99025ZE  25336.00828132  .00003993  00000+0  10317-2 0  9992", "line2": "2 30293  99.2546 165.9031 0076539 146.5188   5.7894 14.48831614988213"}}, "geometry": {"type": "Point", "coordinates": [179.2178596398304, -53.70907352664099]}}, {"type": "Feature", "properties": {"norad_id": 30294, "name": "FENGYUN 1C DEB", "group": "fengyun-1c-debris", "lat": 25.18084385634154, "lon": -38.94304240555926, "alt_km": 673.1189425743878, "timestamp": "2025-12-02T10:50:47.549386+00:00", "meta": {"OBJECT_NAME": "FENGYUN 1C DEB", "OBJECT_ID": "1999-025ZF", "EPOCH": "2025-12-01T23:17:47.013792", "MEAN_MOTION": 14.34893068, "ECCENTRICITY": 0.0198291, "INCLINATION": 98.3554, "RA_OF_ASC_NODE": 324.5531, "ARG_OF_PERICENTER": 341.8899, "MEAN_ANOMALY": 77.5409, "EPHEMERIS_TYPE": 0, "CLASSIFICATION_TYPE": "U", "NORAD_CAT_ID": 30294, "ELEMENT_SET_NO": 999, "REV_AT_EPOCH": 98382, "BSTAR": 0.00054072, "MEAN_MOTION_DOT": 1.87e-05, "MEAN_MOTION_DDOT": 0}, "tle": {"line1": "1 30294U 99025ZF  25335.97068303  .00001870  00000+0  54072-3 0  9993", "line2": "2 30294  98.3554 324.5531 0198291 341.8899  77.5409 14.34893068983827"}}, "geometry": {"type": "Point", "coordinates": [-38.94304240555926, 25.18084385634154]}}, {"type": "Feature", "properties": {"norad_id": 30295, "name": "FENGYUN 1C DEB", "group": "fengyun-1c-debris", "lat": -28.216454144191303, "lon": 3.82047714301174, "alt_km": 866.4089507947228, "timestamp": "2025-12-02T10:50:47.549396+00:00", "meta": {"OBJECT_NAME": "FENGYUN 1C DEB", "OBJECT_ID": "1999-025ZG", "EPOCH": "2025-12-02T01:08:07.303200", "MEAN_MOTION": 14.25030163, "ECCENTRICITY": 0.0094464, "INCLINATION": 98.5092, "RA_OF_ASC_NODE": 358.8206, "ARG_OF_PERICENTER": 113.3667, "MEAN_ANOMALY": 304.2457, "EPHEMERIS_TYPE": 0, "CLASSIFICATION_TYPE": "U", "NORAD_CAT_ID": 30295, "ELEMENT_SET_NO": 999, "REV_AT_EPOCH": 98024, "BSTAR": 0.00019067, "MEAN_MOTION_DOT": 4.26e-06, "MEAN_MOTION_DDOT": 0}, "tle": {"line1": "1 30295U 99025ZG  25336.04730675  .00000426  00000+0  19067-3 0  9992", "line2": "2 30295  98.5092 358.8206 0094464 113.3667 304.2457 14.25030163980243"}}, "geometry": {"type": "Point", "coordinates": [3.82047714301174, -28.216454144191303]}}, {"type": "Feature", "properties": {"norad_id": 30297, "name": "FENGYUN 1C DEB", "group": "fengyun-1c-debris", "lat": 30.838647377393865, "lon": -77.31745369745553, "alt_km": 920.4031682080449, "timestamp": "2025-12-02T10:50:47.549407+00:00", "meta": {"OBJECT_NAME": "FENGYUN 1C DEB", "OBJECT_ID": "1999-025ZJ", "EPOCH": "2025-12-01T15:12:56.698848", "MEAN_MOTION": 14.21622519, "ECCENTRICITY": 0.03796061, "INCLINATION": 98.8099, "RA_OF_ASC_NODE": 287.1766, "ARG_OF_PERICENTER": 147.6855, "MEAN_ANOMALY": 23.8913, "EPHEMERIS_TYPE": 0, "CLASSIFICATION_TYPE": "U", "NORAD_CAT_ID": 30297, "ELEMENT_SET_NO": 999, "REV_AT_EPOCH": 94994, "BSTAR": 0.0010596162, "MEAN_MOTION_DOT": 4.817e-05, "MEAN_MOTION_DDOT": 0}, "tle": {"line1": "1 30297U 99025ZJ  25335.63398957  .00004817  00000+0  10596-2 0  9996", "line2": "2 30297  98.8099 287.1766 0379606 147.6855  23.8913 14.21622519949944"}}, "geometry": {"type": "Point", "coordinates": [-77.31745369745553, 30.838647377393865]}}, {"type": "Feature", "properties": {"norad_id": 30298, "name": "FENGYUN 1C DEB", "group": "fengyun-1c-debris", "lat": 12.548225714682973, "lon": -110.76051138299245, "alt_km": 792.1944206695125, "timestamp": "2025-12-02T10:50:47.549417+00:00", "meta": {"OBJECT_NAME": "FENGYUN 1C DEB", "OBJECT_ID": "1999-025ZK", "EPOCH": "2025-12-02T05:07:44.980320", "MEAN_MOTION": 14.19792862, "ECCENTRICITY": 0.0049404, "INCLINATION": 99.0029, "RA_OF_ASC_NODE": 66.9751, "ARG_OF_PERICENTER": 157.1709, "MEAN_ANOMALY": 232.9591, "EPHEMERIS_TYPE": 0, "CLASSIFICATION_TYPE": "U", "NORAD_CAT_ID": 30298, "ELEMENT_SET_NO": 999, "REV_AT_EPOCH": 96685, "BSTAR": 0.0023746, "MEAN_MOTION_DOT": 5.05e-05, "MEAN_MOTION_DDOT": 0}, "tle": {"line1": "1 30298U 99025ZK  25336.21371505  .00005050  00000+0  23746-2 0  9993", "line2": "2 30298  99.0029  66.9751 0049404 157.1709 232.9591 14.19792862966852"}}, "geometry": {"type": "Point", "coordinates": [-110.76051138299245, 12.548225714682973]}}, {"type": "Feature", "properties": {"norad_id": 30299, "name": "FENGYUN 1C DEB", "group": "fengyun-1c-debris", "lat": 61.21686521022623, "lon": -114.43686499077765, "alt_km": 847.9093441669365, "timestamp": "2025-12-02T10:50:47.549427+00:00", "meta": {"OBJECT_NAME": "FENGYUN 1C DEB", "OBJECT_ID": "1999-025ZL", "EPOCH": "2025-12-02T03:37:15.467808", "MEAN_MOTION": 14.07669851, "ECCENTRICITY": 0.0103681, "INCLINATION": 99.095, "RA_OF_ASC_NODE": 48.3075, "ARG_OF_PERICENTER": 37.9331, "MEAN_ANOMALY": 353.4274, "EPHEMERIS_TYPE": 0, "CLASSIFICATION_TYPE": "U", "NORAD_CAT_ID": 30299, "ELEMENT_SET_NO": 999, "REV_AT_EPOCH": 96141, "BSTAR": 0.0016418, "MEAN_MOTION_DOT": 2.87e-05, "MEAN_MOTION_DDOT": 0}, "tle": {"line1": "1 30299U 99025ZL  25336.15087347  .00002870  00000+0  16418-2 0  9990", "line2": "2 30299  99.0950  48.3075 0103681  37.9331 353.4274 14.07669851961415"}}, "geometry": {"type": "Point", "coordinates": [-114.43686499077765, 61.21686521022623]}}, {"type": "Feature", "properties": {"norad_id": 30300, "name": "FENGYUN 1C DEB", "group": "fengyun-1c-debris", "lat": -54.72828308377494, "lon": 58.46847626259257, "alt_km": 759.4939943881745, "timestamp": "2025-12-02T10:50:47.549437+00:00", "meta": {"OBJECT_NAME": "FENGYUN 1C DEB", "OBJECT_ID": "1999-025ZM", "EPOCH": "2025-11-30T03:41:45.033216", "MEAN_MOTION": 14.26637028, "ECCENTRICITY": 0.00746498, "INCLINATION": 99.0435, "RA_OF_ASC_NODE": 43.0822, "ARG_OF_PERICENTER": 331.0155, "MEAN_ANOMALY": 58.0965, "EPHEMERIS_TYPE": 0, "CLASSIFICATION_TYPE": "U", "NORAD_CAT_ID": 30300, "ELEMENT_SET_NO": 999, "REV_AT_EPOCH": 96805, "BSTAR": 0.0023442456, "MEAN_MOTION_DOT": 5.789e-05, "MEAN_MOTION_DDOT": 0}, "tle": {"line1": "1 30300U 99025ZM  25334.15399344  .00005789  00000+0  23442-2 0  9991", "line2": "2 30300  99.0435  43.0822 0074649 331.0155  58.0965 14.26637028968055"}}, "geometry": {"type": "Point", "coordinates": [58.46847626259257, -54.72828308377494]}}, {"type": "Feature", "properties": {"norad_id": 30301, "name": "FENGYUN 1C DEB", "group": "fengyun-1c-debris", "lat": -42.41016308940182, "lon": -60.71056784690487, "alt_km": 730.1523612323654, "timestamp": "2025-12-02T10:50:47.549447+00:00", "meta": {"OBJECT_NAME": "FENGYUN 1C DEB", "OBJECT_ID": "1999-025ZN", "EPOCH": "2025-12-02T03:27:58.104000", "MEAN_MOTION": 14.52430998, "ECCENTRICITY": 0.00685, "INCLINATION": 98.6355, "RA_OF_ASC_NODE": 126.9525, "ARG_OF_PERICENTER": 321.1796, "MEAN_ANOMALY": 95.5212, "EPHEMERIS_TYPE": 0, "CLASSIFICATION_TYPE": "U", "NORAD_CAT_ID": 30301, "ELEMENT_SET_NO": 999, "REV_AT_EPOCH": 97063, "BSTAR": 0.0042004, "MEAN_MOTION_DOT": 0.0001765, "MEAN_MOTION_DDOT": 0}, "tle": {"line1": "1 30301U 99025ZN  25336.14442250  .00017650  00000+0  42004-2 0  9993", "line2": "2 30301  98.6355 126.9525 0068500 321.1796  95.5212 14.52430998970637"}}, "geometry": {"type": "Point", "coordinates": [-60.71056784690487, -42.41016308940182]}}, {"type": "Feature", "properties": {"norad_id": 30302, "name": "FENGYUN 1C DEB", "group": "fengyun-1c-debris", "lat": 7.6544769944073385, "lon": -116.55192608189815, "alt_km": 908.7859395063542, "timestamp": "2025-12-02T10:50:47.549457+00:00", "meta": {"OBJECT_NAME": "FENGYUN 1C DEB", "OBJECT_ID": "1999-025ZP", "EPOCH": "2025-11-29T23:18:50.228352", "MEAN_MOTION": 14.12670881, "ECCENTRICITY": 0.01037294, "INCLINATION": 98.5513, "RA_OF_ASC_NODE": 242.2381, "ARG_OF_PERICENTER": 154.5235, "MEAN_ANOMALY": 206.1103, "EPHEMERIS_TYPE": 0, "CLASSIFICATION_TYPE": "U", "NORAD_CAT_ID": 30302, "ELEMENT_SET_NO": 999, "REV_AT_EPOCH": 95863, "BSTAR": 0.0022401364, "MEAN_MOTION_DOT": 4.33e-05, "MEAN_MOTION_DDOT": 0}, "tle": {"line1": "1 30302U 99025ZP  25333.97141468  .00004330  00000+0  22401-2 0  9999", "line2": "2 30302  98.5513 242.2381 0103729 154.5235 206.1103 14.12670881958632"}}, "geometry": {"type": "Point", "coordinates": [-116.55192608189815, 7.6544769944073385]}}, {"type": "Feature", "properties": {"norad_id": 30303, "name": "FENGYUN 1C DEB", "group": "fengyun-1c-debris", "lat": -11.518004260776632, "lon": -128.39745776409225, "alt_km": 838.150718729521, "timestamp": "2025-12-02T10:50:47.549467+00:00", "meta": {"OBJECT_NAME": "FENGYUN 1C DEB", "OBJECT_ID": "1999-025ZQ", "EPOCH": "2025-12-01T03:37:30.484992", "MEAN_MOTION": 14.25619112, "ECCENTRICITY": 0.00751926, "INCLINATION": 99.0202, "RA_OF_ASC_NODE": 52.1197, "ARG_OF_PERICENTER": 316.269, "MEAN_ANOMALY": 43.2547, "EPHEMERIS_TYPE": 0, "CLASSIFICATION_TYPE": "U", "NORAD_CAT_ID": 30303, "ELEMENT_SET_NO": 999, "REV_AT_EPOCH": 96870, "BSTAR": 0.0024223705, "MEAN_MOTION_DOT": 5.867e-05, "MEAN_MOTION_DDOT": 0}, "tle": {"line1": "1 30303U 99025ZQ  25335.15104728  .00005867  00000+0  24224-2 0  9991", "line2": "2 30303  99.0202  52.1197 0075192 316.2690  43.2547 14.25619112968706"}}, "geometry": {"type": "Point", "coordinates": [-128.39745776409225, -11.518004260776632]}}]}